{
  "type": "FeatureCollection",
  "features": [
    {
      "type": "Feature",
      "properties": {
        "norad_id": 29268,
        "name": "ARIRANG-2 (KOMPSAT-2)",
        "group": "resource",
        "lat": 8.658998577690282,
        "lon": 173.97599175457879,
        "alt_km": 675.616486596331,
        "timestamp": "2025-12-12T16:50:32.804022+00:00",
        "meta_object_name": "ARIRANG-2 (KOMPSAT-2)",
        "meta_object_id": "2006-031A",
        "meta_epoch": "2025-12-12T07:45:19.709856",
        "meta_mean_motion": 14.64492396,
        "meta_eccentricity": 0.00135361,
        "meta_inclination": 97.8264,
        "meta_ra_of_asc_node": 174.8162,
        "meta_arg_of_pericenter": 310.7996,
        "meta_mean_anomaly": 222.9562,
        "meta_ephemeris_type": 0,
        "meta_classification_type": "U",
        "meta_norad_cat_id": 29268,
        "meta_element_set_no": 999,
        "meta_rev_at_epoch": 3412,
        "meta_bstar": 0.00010574652,
        "meta_mean_motion_dot": 5.16e-06,
        "meta_mean_motion_ddot": 0,
        "tle_line1": "1 29268U 06031A   25346.32314479  .00000516  00000+0  10575-3 0  9992",
        "tle_line2": "2 29268  97.8264 174.8162 0013536 310.7996 222.9562 14.64492396 34123"
      },
      "geometry": {
        "type": "Point",
        "coordinates": [
          173.97599175457879,
          8.658998577690282
        ]
      }
    },
    {
      "type": "Feature",
      "properties": {
        "norad_id": 29709,
        "name": "LAPAN-TUBSAT",
        "group": "resource",
        "lat": -58.792695791863565,
        "lon": -9.500232894017993,
        "alt_km": 625.1804655156257,
        "timestamp": "2025-12-12T16:50:32.804032+00:00",
        "meta_object_name": "LAPAN-TUBSAT",
        "meta_object_id": "2007-001A",
        "meta_epoch": "2025-12-12T04:10:47.551008",
        "meta_mean_motion": 14.85667916,
        "meta_eccentricity": 0.00136337,
        "meta_inclination": 98.1261,
        "meta_ra_of_asc_node": 336.319,
        "meta_arg_of_pericenter": 75.6504,
        "meta_mean_anomaly": 284.6223,
        "meta_ephemeris_type": 0,
        "meta_classification_type": "U",
        "meta_norad_cat_id": 29709,
        "meta_element_set_no": 999,
        "meta_rev_at_epoch": 2338,
        "meta_bstar": 9.5582287e-05,
        "meta_mean_motion_dot": 7.72e-06,
        "meta_mean_motion_ddot": 0,
        "tle_line1": "1 29709U 07001A   25346.17416147  .00000772  00000+0  95582-4 0  9994",
        "tle_line2": "2 29709  98.1261 336.3190 0013633  75.6504 284.6223 14.85667916 23380"
      },
      "geometry": {
        "type": "Point",
        "coordinates": [
          -9.500232894017993,
          -58.792695791863565
        ]
      }
    },
    {
      "type": "Feature",
      "properties": {
        "norad_id": 31113,
        "name": "HAIYANG-1B",
        "group": "resource",
        "lat": -13.148316044652901,
        "lon": 149.01971608452752,
        "alt_km": 802.275796978769,
        "timestamp": "2025-12-12T16:50:32.804042+00:00",
        "meta_object_name": "HAIYANG-1B",
        "meta_object_id": "2007-010A",
        "meta_epoch": "2025-12-12T05:52:27.763392",
        "meta_mean_motion": 14.30964775,
        "meta_eccentricity": 0.00142732,
        "meta_inclination": 98.3315,
        "meta_ra_of_asc_node": 330.5433,
        "meta_arg_of_pericenter": 39.3381,
        "meta_mean_anomaly": 320.8837,
        "meta_ephemeris_type": 0,
        "meta_classification_type": "U",
        "meta_norad_cat_id": 31113,
        "meta_element_set_no": 999,
        "meta_rev_at_epoch": 97389,
        "meta_bstar": 9.7097692e-05,
        "meta_mean_motion_dot": 2.14e-06,
        "meta_mean_motion_ddot": 0,
        "tle_line1": "1 31113U 07010A   25346.24476578  .00000214  00000+0  97098-4 0  9993",
        "tle_line2": "2 31113  98.3315 330.5433 0014273  39.3381 320.8837 14.30964775973898"
      },
      "geometry": {
        "type": "Point",
        "coordinates": [
          149.01971608452752,
          -13.148316044652901
        ]
      }
    },
    {
      "type": "Feature",
      "properties": {
        "norad_id": 31598,
        "name": "COSMO-SKYMED 1",
        "group": "resource",
        "lat": -73.20998077715547,
        "lon": -35.23695372189177,
        "alt_km": 588.1157967252657,
        "timestamp": "2025-12-12T16:50:32.804053+00:00",
        "meta_object_name": "COSMO-SKYMED 1",
        "meta_object_id": "2007-023A",
        "meta_epoch": "2025-12-12T07:40:39.910368",
        "meta_mean_motion": 14.95759021,
        "meta_eccentricity": 0.00011763,
        "meta_inclination": 97.8835,
        "meta_ra_of_asc_node": 171.7163,
        "meta_arg_of_pericenter": 88.8836,
        "meta_mean_anomaly": 271.2519,
        "meta_ephemeris_type": 0,
        "meta_classification_type": "U",
        "meta_norad_cat_id": 31598,
        "meta_element_set_no": 999,
        "meta_rev_at_epoch": 184,
        "meta_bstar": 0.00054439299,
        "meta_mean_motion_dot": 6.012e-05,
        "meta_mean_motion_ddot": 0,
        "tle_line1": "1 31598U 07023A   25346.31990637  .00006012  00000+0  54439-3 0  9992",
        "tle_line2": "2 31598  97.8835 171.7163 0001176  88.8836 271.2519 14.95759021  1843"
      },
      "geometry": {
        "type": "Point",
        "coordinates": [
          -35.23695372189177,
          -73.20998077715547
        ]
      }
    },
    {
      "type": "Feature",
      "properties": {
        "norad_id": 31698,
        "name": "TERRASAR-X",
        "group": "resource",
        "lat": -82.23931872854669,
        "lon": 98.42790412128706,
        "alt_km": 517.0492278690117,
        "timestamp": "2025-12-12T16:50:32.804063+00:00",
        "meta_object_name": "TERRASAR-X",
        "meta_object_id": "2007-026A",
        "meta_epoch": "2025-12-11T11:12:43.517376",
        "meta_mean_motion": 15.19155336,
        "meta_eccentricity": 0.00018891,
        "meta_inclination": 97.4455,
        "meta_ra_of_asc_node": 350.8663,
        "meta_arg_of_pericenter": 92.9175,
        "meta_mean_anomaly": 267.2276,
        "meta_ephemeris_type": 0,
        "meta_classification_type": "U",
        "meta_norad_cat_id": 31698,
        "meta_element_set_no": 999,
        "meta_rev_at_epoch": 2472,
        "meta_bstar": 9.3381918e-05,
        "meta_mean_motion_dot": 1.895e-05,
        "meta_mean_motion_ddot": 0,
        "tle_line1": "1 31698U 07026A   25345.46717034  .00001895  00000+0  93382-4 0  9994",
        "tle_line2": "2 31698  97.4455 350.8663 0001889  92.9175 267.2276 15.19155336 24729"
      },
      "geometry": {
        "type": "Point",
        "coordinates": [
          98.42790412128706,
          -82.23931872854669
        ]
      }
    },
    {
      "type": "Feature",
      "properties": {
        "norad_id": 32060,
        "name": "WORLDVIEW-1 (WV-1)",
        "group": "resource",
        "lat": -82.42807837928318,
        "lon": -153.10913114678374,
        "alt_km": 499.61547672916186,
        "timestamp": "2025-12-12T16:50:32.804073+00:00",
        "meta_object_name": "WORLDVIEW-1 (WV-1)",
        "meta_object_id": "2007-041A",
        "meta_epoch": "2025-12-12T06:13:06.052512",
        "meta_mean_motion": 15.24678697,
        "meta_eccentricity": 8.011e-05,
        "meta_inclination": 97.3834,
        "meta_ra_of_asc_node": 103.7466,
        "meta_arg_of_pericenter": 107.0859,
        "meta_mean_anomaly": 253.0467,
        "meta_ephemeris_type": 0,
        "meta_classification_type": "U",
        "meta_norad_cat_id": 32060,
        "meta_element_set_no": 999,
        "meta_rev_at_epoch": 1440,
        "meta_bstar": 0.00051353225,
        "meta_mean_motion_dot": 0.00012631,
        "meta_mean_motion_ddot": 0,
        "tle_line1": "1 32060U 07041A   25346.25909783  .00012631  00000+0  51353-3 0  9998",
        "tle_line2": "2 32060  97.3834 103.7466 0000801 107.0859 253.0467 15.24678697 14404"
      },
      "geometry": {
        "type": "Point",
        "coordinates": [
          -153.10913114678374,
          -82.42807837928318
        ]
      }
    },
    {
      "type": "Feature",
      "properties": {
        "norad_id": 32289,
        "name": "YAOGAN-3",
        "group": "resource",
        "lat": 72.82553829869704,
        "lon": -140.20938064419994,
        "alt_km": 590.6570343763306,
        "timestamp": "2025-12-12T16:50:32.804083+00:00",
        "meta_object_name": "YAOGAN-3",
        "meta_object_id": "2007-055A",
        "meta_epoch": "2025-12-12T08:18:43.886592",
        "meta_mean_motion": 14.89855908,
        "meta_eccentricity": 0.00012153,
        "meta_inclination": 97.8367,
        "meta_ra_of_asc_node": 12.9745,
        "meta_arg_of_pericenter": 75.9551,
        "meta_mean_anomaly": 284.1802,
        "meta_ephemeris_type": 0,
        "meta_classification_type": "U",
        "meta_norad_cat_id": 32289,
        "meta_element_set_no": 999,
        "meta_rev_at_epoch": 97803,
        "meta_bstar": 0.00047437129,
        "meta_mean_motion_dot": 4.504e-05,
        "meta_mean_motion_ddot": 0,
        "tle_line1": "1 32289U 07055A   25346.34634128  .00004504  00000+0  47437-3 0  9992",
        "tle_line2": "2 32289  97.8367  12.9745 0001215  75.9551 284.1802 14.89855908978034"
      },
      "geometry": {
        "type": "Point",
        "coordinates": [
          -140.20938064419994,
          72.82553829869704
        ]
      }
    }
  ]
}